{"fetched_at":"2026-07-19T07:04:49.137Z","source":"https://celestrak.org/NORAD/elements/gp.php?GROUP=oneweb&FORMAT=JSON","constellation":"oneweb","records":[{"OBJECT_NAME":"ONEWEB-0159","OBJECT_ID":"2021-025W","EPOCH":"2026-07-18T19:18:41.728032","CLASSIFICATION_TYPE":"U","MEAN_MOTION":13.13470116,"ECCENTRICITY":0.0002189,"INCLINATION":87.8988,"RA_OF_ASC_NODE":313.9255,"ARG_OF_PERICENTER":97.7718,"MEAN_ANOMALY":262.366,"EPHEMERIS_TYPE":0,"NORAD_CAT_ID":48062,"ELEMENT_SET_NO":999,"REV_AT_EPOCH":25775,"BSTAR":-0.0007925,"MEAN_MOTION_DOT":-0.00000277,"MEAN_MOTION_DDOT":0},{"OBJECT_NAME":"ONEWEB-0164","OBJECT_ID":"2021-025X","EPOCH":"2026-07-18T18:51:53.073216","CLASSIFICATION_TYPE":"U","MEAN_MOTION":13.13469178,"ECCENTRICITY":0.000191,"INCLINATION":87.899,"RA_OF_ASC_NODE":313.9356,"ARG_OF_PERICENTER":100.7065,"MEAN_ANOMALY":259.4279,"EPHEMERIS_TYPE":0,"NORAD_CAT_ID":48063,"ELEMENT_SET_NO":999,"REV_AT_EPOCH":25773,"BSTAR":0.00039673,"MEAN_MOTION_DOT":0.00000158,"MEAN_MOTION_DDOT":0},{"OBJECT_NAME":"ONEWEB-0167","OBJECT_ID":"2021-025Y","EPOCH":"2026-07-18T19:32:06.862848","CLASSIFICATION_TYPE":"U","MEAN_MOTION":13.13470452,"ECCENTRICITY":0.0002586,"INCLINATION":87.8981,"RA_OF_ASC_NODE":313.9365,"ARG_OF_PERICENTER":105.7034,"MEAN_ANOMALY":254.438,"EPHEMERIS_TYPE":0,"NORAD_CAT_ID":48064,"ELEMENT_SET_NO":999,"REV_AT_EPOCH":25772,"BSTAR":-0.00077436,"MEAN_MOTION_DOT":-0.0000027,"MEAN_MOTION_DDOT":0},{"OBJECT_NAME":"ONEWEB-0166","OBJECT_ID":"2021-025Z","EPOCH":"2026-07-18T18:15:19.656288","CLASSIFICATION_TYPE":"U","MEAN_MOTION":13.13470025,"ECCENTRICITY":0.0001957,"INCLINATION":87.8987,"RA_OF_ASC_NODE":313.9223,"ARG_OF_PERICENTER":97.9872,"MEAN_ANOMALY":262.1479,"EPHEMERIS_TYPE":0,"NORAD_CAT_ID":48065,"ELEMENT_SET_NO":999,"REV_AT_EPOCH":25779,"BSTAR":0.00072835,"MEAN_MOTION_DOT":0.00000279,"MEAN_MOTION_DDOT":0},{"OBJECT_NAME":"ONEWEB-0151","OBJECT_ID":"2021-025AA","EPOCH":"2026-07-18T18:17:45.153024","CLASSIFICATION_TYPE":"U","MEAN_MOTION":13.13470471,"ECCENTRICITY":0.0002058,"INCLINATION":87.8985,"RA_OF_ASC_NODE":313.9366,"ARG_OF_PERICENTER":102.8223,"MEAN_ANOMALY":257.3136,"EPHEMERIS_TYPE":0,"NORAD_CAT_ID":48066,"ELEMENT_SET_NO":999,"REV_AT_EPOCH":25773,"BSTAR":0.000784,"MEAN_MOTION_DOT":0.00000299,"MEAN_MOTION_DDOT":0},{"OBJECT_NAME":"ONEWEB-0170","OBJECT_ID":"2021-025AB","EPOCH":"2026-07-18T18:29:56.610240","CLASSIFICATION_TYPE":"U","MEAN_MOTION":13.13469312,"ECCENTRICITY":0.0001925,"INCLINATION":87.8983,"RA_OF_ASC_NODE":313.937,"ARG_OF_PERICENTER":116.29,"MEAN_ANOMALY":243.8427,"EPHEMERIS_TYPE":0,"NORAD_CAT_ID":48067,"ELEMENT_SET_NO":999,"REV_AT_EPOCH":25769,"BSTAR":0.00084665,"MEAN_MOTION_DOT":0.00000322,"MEAN_MOTION_DDOT":0},{"OBJECT_NAME":"ONEWEB-0168","OBJECT_ID":"2021-025AC","EPOCH":"2026-07-18T18:08:00.460896","CLASSIFICATION_TYPE":"U","MEAN_MOTION":13.13469909,"ECCENTRICITY":0.0002015,"INCLINATION":87.8988,"RA_OF_ASC_NODE":313.9413,"ARG_OF_PERICENTER":100.8229,"MEAN_ANOMALY":259.3127,"EPHEMERIS_TYPE":0,"NORAD_CAT_ID":48068,"ELEMENT_SET_NO":999,"REV_AT_EPOCH":25770,"BSTAR":0.00038159,"MEAN_MOTION_DOT":0.00000152,"MEAN_MOTION_DDOT":0},{"OBJECT_NAME":"ONEWEB-0173","OBJECT_ID":"2021-025AD","EPOCH":"2026-07-18T19:45:30.833856","CLASSIFICATION_TYPE":"U","MEAN_MOTION":13.13470404,"ECCENTRICITY":0.0002333,"INCLINATION":87.8983,"RA_OF_ASC_NODE":313.9273,"ARG_OF_PERICENTER":99.2233,"MEAN_ANOMALY":260.916,"EPHEMERIS_TYPE":0,"NORAD_CAT_ID":48069,"ELEMENT_SET_NO":999,"REV_AT_EPOCH":25795,"BSTAR":-0.00030947,"MEAN_MOTION_DOT":-0.000001,"MEAN_MOTION_DDOT":0},{"OBJECT_NAME":"ONEWEB-0171","OBJECT_ID":"2021-025AE","EPOCH":"2026-07-18T18:49:26.766048","CLASSIFICATION_TYPE":"U","MEAN_MOTION":13.13469464,"ECCENTRICITY":0.000201,"INCLINATION":87.8981,"RA_OF_ASC_NODE":313.9423,"ARG_OF_PERICENTER":103.4825,"MEAN_ANOMALY":256.6528,"EPHEMERIS_TYPE":0,"NORAD_CAT_ID":48070,"ELEMENT_SET_NO":999,"REV_AT_EPOCH":25776,"BSTAR":0.00030367,"MEAN_MOTION_DOT":0.00000124,"MEAN_MOTION_DDOT":0},{"OBJECT_NAME":"ONEWEB-0172","OBJECT_ID":"2021-025AF","EPOCH":"2026-07-18T18:20:11.247648","CLASSIFICATION_TYPE":"U","MEAN_MOTION":13.13471124,"ECCENTRICITY":0.000212,"INCLINATION":87.899,"RA_OF_ASC_NODE":313.939,"ARG_OF_PERICENTER":101.5929,"MEAN_ANOMALY":258.5438,"EPHEMERIS_TYPE":0,"NORAD_CAT_ID":48071,"ELEMENT_SET_NO":999,"REV_AT_EPOCH":25865,"BSTAR":0.00079955,"MEAN_MOTION_DOT":0.00000305,"MEAN_MOTION_DDOT":0},{"OBJECT_NAME":"ONEWEB-0174","OBJECT_ID":"2021-025AG","EPOCH":"2026-07-18T19:43:04.861056","CLASSIFICATION_TYPE":"U","MEAN_MOTION":13.13469972,"ECCENTRICITY":0.0001949,"INCLINATION":87.8988,"RA_OF_ASC_NODE":313.9263,"ARG_OF_PERICENTER":95.8802,"MEAN_ANOMALY":264.2549,"EPHEMERIS_TYPE":0,"NORAD_CAT_ID":48072,"ELEMENT_SET_NO":999,"REV_AT_EPOCH":25798,"BSTAR":-0.00051121,"MEAN_MOTION_DOT":-0.00000174,"MEAN_MOTION_DDOT":0},{"OBJECT_NAME":"ONEWEB-0175","OBJECT_ID":"2021-025AH","EPOCH":"2026-07-18T18:37:15.649248","CLASSIFICATION_TYPE":"U","MEAN_MOTION":13.13469763,"ECCENTRICITY":0.0002106,"INCLINATION":87.8992,"RA_OF_ASC_NODE":313.921,"ARG_OF_PERICENTER":107.6482,"MEAN_ANOMALY":252.4877,"EPHEMERIS_TYPE":0,"NORAD_CAT_ID":48073,"ELEMENT_SET_NO":999,"REV_AT_EPOCH":25763,"BSTAR":0.00074908,"MEAN_MOTION_DOT":0.00000286,"MEAN_MOTION_DDOT":0},{"OBJECT_NAME":"ONEWEB-0177","OBJECT_ID":"2021-025AJ","EPOCH":"2026-07-18T18:54:19.228320","CLASSIFICATION_TYPE":"U","MEAN_MOTION":13.13469791,"ECCENTRICITY":0.0002075,"INCLINATION":87.8988,"RA_OF_ASC_NODE":313.9357,"ARG_OF_PERICENTER":95.3316,"MEAN_ANOMALY":264.805,"EPHEMERIS_TYPE":0,"NORAD_CAT_ID":48074,"ELEMENT_SET_NO":999,"REV_AT_EPOCH":25782,"BSTAR":0.000044299,"MEAN_MOTION_DOT":2.9e-7,"MEAN_MOTION_DDOT":0},{"OBJECT_NAME":"ONEWEB-0178","OBJECT_ID":"2021-025AK","EPOCH":"2026-07-18T19:21:19.817568","CLASSIFICATION_TYPE":"U","MEAN_MOTION":13.13470575,"ECCENTRICITY":0.0002213,"INCLINATION":87.8977,"RA_OF_ASC_NODE":313.9415,"ARG_OF_PERICENTER":102.5621,"MEAN_ANOMALY":257.5755,"EPHEMERIS_TYPE":0,"NORAD_CAT_ID":48075,"ELEMENT_SET_NO":999,"REV_AT_EPOCH":25787,"BSTAR":-0.00087761,"MEAN_MOTION_DOT":-0.00000308,"MEAN_MOTION_DDOT":0},{"OBJECT_NAME":"ONEWEB-0108","OBJECT_ID":"2021-025AL","EPOCH":"2026-07-18T18:22:38.228736","CLASSIFICATION_TYPE":"U","MEAN_MOTION":13.13469895,"ECCENTRICITY":0.0001721,"INCLINATION":87.8989,"RA_OF_ASC_NODE":313.9328,"ARG_OF_PERICENTER":98.1273,"MEAN_ANOMALY":262.0051,"EPHEMERIS_TYPE":0,"NORAD_CAT_ID":48076,"ELEMENT_SET_NO":999,"REV_AT_EPOCH":25779,"BSTAR":0.00090772,"MEAN_MOTION_DOT":0.00000344,"MEAN_MOTION_DDOT":0},{"OBJECT_NAME":"ONEWEB-0169","OBJECT_ID":"2021-025AM","EPOCH":"2026-07-18T19:08:56.833728","CLASSIFICATION_TYPE":"U","MEAN_MOTION":13.13469318,"ECCENTRICITY":0.0001931,"INCLINATION":87.8985,"RA_OF_ASC_NODE":313.9324,"ARG_OF_PERICENTER":96.2096,"MEAN_ANOMALY":263.9253,"EPHEMERIS_TYPE":0,"NORAD_CAT_ID":48077,"ELEMENT_SET_NO":999,"REV_AT_EPOCH":25645,"BSTAR":-0.00054259,"MEAN_MOTION_DOT":-0.00000185,"MEAN_MOTION_DDOT":0}]}
