ONEWEB-0159             
1 48062U 21025W   26199.80464963 -.00000277  00000+0 -79250-3 0  9990
2 48062  87.8988 313.9255 0002189  97.7718 262.3660 13.13470116257755
ONEWEB-0164             
1 48063U 21025X   26199.78603094  .00000158  00000+0  39673-3 0  9999
2 48063  87.8990 313.9356 0001910 100.7065 259.4279 13.13469178257739
ONEWEB-0167             
1 48064U 21025Y   26199.81396832 -.00000270  00000+0 -77436-3 0  9999
2 48064  87.8981 313.9365 0002586 105.7034 254.4380 13.13470452257725
ONEWEB-0166             
1 48065U 21025Z   26199.76064417  .00000279  00000+0  72835-3 0  9990
2 48065  87.8987 313.9223 0001957  97.9872 262.1479 13.13470025257796
ONEWEB-0151             
1 48066U 21025AA  26199.76232816  .00000299  00000+0  78400-3 0  9997
2 48066  87.8985 313.9366 0002058 102.8223 257.3136 13.13470471257737
ONEWEB-0170             
1 48067U 21025AB  26199.77079410  .00000322  00000+0  84665-3 0  9995
2 48067  87.8983 313.9370 0001925 116.2900 243.8427 13.13469312257694
ONEWEB-0168             
1 48068U 21025AC  26199.75556089  .00000152  00000+0  38159-3 0  9994
2 48068  87.8988 313.9413 0002015 100.8229 259.3127 13.13469909257705
ONEWEB-0173             
1 48069U 21025AD  26199.82327354 -.00000100  00000+0 -30947-3 0  9996
2 48069  87.8983 313.9273 0002333  99.2233 260.9160 13.13470404257958
ONEWEB-0171             
1 48070U 21025AE  26199.78433757  .00000124  00000+0  30367-3 0  9998
2 48070  87.8981 313.9423 0002010 103.4825 256.6528 13.13469464257765
ONEWEB-0172             
1 48071U 21025AF  26199.76401907  .00000305  00000+0  79955-3 0  9996
2 48071  87.8990 313.9390 0002120 101.5929 258.5438 13.13471124258651
ONEWEB-0174             
1 48072U 21025AG  26199.82158404 -.00000174  00000+0 -51121-3 0  9996
2 48072  87.8988 313.9263 0001949  95.8802 264.2549 13.13469972257981
ONEWEB-0175             
1 48073U 21025AH  26199.77587557  .00000286  00000+0  74908-3 0  9996
2 48073  87.8992 313.9210 0002106 107.6482 252.4877 13.13469763257634
ONEWEB-0177             
1 48074U 21025AJ  26199.78772255  .00000029  00000+0  44299-4 0  9995
2 48074  87.8988 313.9357 0002075  95.3316 264.8050 13.13469791257828
ONEWEB-0178             
1 48075U 21025AK  26199.80647937 -.00000308  00000+0 -87761-3 0  9999
2 48075  87.8977 313.9415 0002213 102.5621 257.5755 13.13470575257874
ONEWEB-0108             
1 48076U 21025AL  26199.76572024  .00000344  00000+0  90772-3 0  9993
2 48076  87.8989 313.9328 0001721  98.1273 262.0051 13.13469895257791
ONEWEB-0169             
1 48077U 21025AM  26199.79788002 -.00000185  00000+0 -54259-3 0  9997
2 48077  87.8985 313.9324 0001931  96.2096 263.9253 13.13469318256455
